[{"OBJECT_NAME":"STARLINK-30108","OBJECT_ID":"2023-056P","EPOCH":"2026-03-09T13:07:34.368384","MEAN_MOTION":15.11980738,"ECCENTRICITY":0.00017014,"INCLINATION":43.0001,"RA_OF_ASC_NODE":197.0429,"ARG_OF_PERICENTER":278.3718,"MEAN_ANOMALY":81.6935,"EPHEMERIS_TYPE":0,"CLASSIFICATION_TYPE":"U","NORAD_CAT_ID":56299,"ELEMENT_SET_NO":999,"REV_AT_EPOCH":16022,"BSTAR":-0.00011039932,"MEAN_MOTION_DOT":-2.151e-5,"MEAN_MOTION_DDOT":0},{"OBJECT_NAME":"OBJECT E","OBJECT_ID":"2025-055E","EPOCH":"2026-03-09T22:44:31.516800","MEAN_MOTION":15.14943489,"ECCENTRICITY":0.00151584,"INCLINATION":97.6347,"RA_OF_ASC_NODE":207.9935,"ARG_OF_PERICENTER":118.7219,"MEAN_ANOMALY":241.5538,"EPHEMERIS_TYPE":0,"CLASSIFICATION_TYPE":"U","NORAD_CAT_ID":63295,"ELEMENT_SET_NO":999,"REV_AT_EPOCH":5397,"BSTAR":0.00069679591,"MEAN_MOTION_DOT":0.00012971,"MEAN_MOTION_DDOT":0}]
